{"features":[{"type":"Feature","properties":{"sigla":"AID","nome":"Área de Influência Direta (exemplo)","tipo":"exemplo"},"geometry":{"type":"Polygon","coordinates":[[[-47.71956198250672,-22.711349824999612],[-47.72048535696209,-22.701963757097197],[-47.723232743784585,-22.692808805337116],[-47.727736493192594,-22.68411039501524],[-47.7338857079286,-22.676082709862065],[-47.74152897391773,-22.66892341812842],[-47.750478088584785,-22.662808805337114],[-47.76051269502626,-22.65788943354831],[-47.7713857079286,-22.654286434021902],[-47.7828293976287,-22.652088524563904],[-47.79456198250672,-22.651349824999613],[-47.80629456738474,-22.652088524563904],[-47.81773825708484,-22.654286434021902],[-47.828611269987185,-22.65788943354831],[-47.83864587642866,-22.662808805337114],[-47.84759499109571,-22.66892341812842],[-47.85523825708484,-22.676082709862065],[-47.86138747182085,-22.68411039501524],[-47.86589122122886,-22.692808805337116],[-47.868638608051356,-22.701963757097197],[-47.869561982506724,-22.711349824999612],[-47.868638608051356,-22.720735892902027],[-47.86589122122886,-22.72989084466211],[-47.86138747182085,-22.738589254983985],[-47.85523825708484,-22.74661694013716],[-47.84759499109571,-22.753776231870805],[-47.83864587642866,-22.75989084466211],[-47.828611269987185,-22.764810216450915],[-47.81773825708484,-22.768413215977322],[-47.80629456738474,-22.77061112543532],[-47.79456198250672,-22.77134982499961],[-47.7828293976287,-22.77061112543532],[-47.7713857079286,-22.768413215977322],[-47.76051269502626,-22.764810216450915],[-47.750478088584785,-22.75989084466211],[-47.74152897391773,-22.753776231870805],[-47.7338857079286,-22.74661694013716],[-47.727736493192594,-22.738589254983985],[-47.723232743784585,-22.72989084466211],[-47.72048535696209,-22.720735892902027],[-47.71956198250672,-22.711349824999612]]]}},{"type":"Feature","properties":{"sigla":"ADA","nome":"Área Diretamente Afetada (exemplo)","tipo":"exemplo"},"geometry":{"type":"Polygon","coordinates":[[[-47.77356198250672,-22.711349824999612],[-47.773965491618256,-22.7076040908169],[-47.775160512323986,-22.704002303098203],[-47.77710112064837,-22.700682876525637],[-47.7797127401018,-22.697773374800832],[-47.78289500761331,-22.695385608443402],[-47.78652563042706,-22.693611337975394],[-47.79046508574438,-22.69251874761587],[-47.79456198250672,-22.69214982499961],[-47.79865887926906,-22.69251874761587],[-47.802598334586385,-22.693611337975394],[-47.80622895740013,-22.695385608443402],[-47.80941122491164,-22.697773374800832],[-47.812022844365075,-22.700682876525637],[-47.81396345268946,-22.704002303098203],[-47.815158473395186,-22.7076040908169],[-47.81556198250672,-22.711349824999612],[-47.815158473395186,-22.715095559182323],[-47.81396345268946,-22.71869734690102],[-47.812022844365075,-22.722016773473587],[-47.80941122491164,-22.724926275198392],[-47.80622895740013,-22.72731404155582],[-47.802598334586385,-22.72908831202383],[-47.79865887926906,-22.730180902383353],[-47.79456198250672,-22.730549824999613],[-47.79046508574438,-22.730180902383353],[-47.78652563042706,-22.72908831202383],[-47.78289500761331,-22.72731404155582],[-47.7797127401018,-22.724926275198392],[-47.77710112064837,-22.722016773473587],[-47.775160512323986,-22.71869734690102],[-47.773965491618256,-22.715095559182323],[-47.77356198250672,-22.711349824999612]]]}}],"type":"FeatureCollection","metadados":{"gerado_por":"tools/gerar_amostra.js","gerado_em":"2026-10-07T13:08:10.296Z","fonte":"EXEMPLO SINTÉTICO — áreas de influência fictícias","data_ref":"exemplo","real":false}}