{"type":"FeatureCollection","features":[{"type":"Feature","properties":{"Nome":"Monte Azul Paulista"},"geometry":{"type":"Polygon","coordinates":[[[-48.634816,-20.897899],[-48.632845,-20.894892],[-48.634103,-20.894367],[-48.632402,-20.892538],[-48.638094,-20.891082],[-48.635051,-20.895193],[-48.636281,-20.896384],[-48.638074,-20.898486],[-48.639329,-20.898142],[-48.643834,-20.898836],[-48.644244,-20.897217],[-48.645421,-20.895698],[-48.648105,-20.896096],[-48.649494,-20.899456],[-48.650821,-20.900648],[-48.650488,-20.897303],[-48.651265,-20.896771],[-48.653444,-20.898788],[-48.653741,-20.89825],[-48.655746,-20.899091],[-48.654749,-20.901425],[-48.657898,-20.902822],[-48.656706,-20.905334],[-48.655461,-20.905046],[-48.655163,-20.905674],[-48.653715,-20.906106],[-48.652825,-20.907719],[-48.651111,-20.906702],[-48.64992,-20.909124],[-48.651142,-20.910857],[-48.651891,-20.912131],[-48.652339,-20.914214],[-48.651465,-20.914834],[-48.65033,-20.913645],[-48.649098,-20.912544],[-48.648097,-20.908918],[-48.648679,-20.908565],[-48.647367,-20.90647],[-48.643858,-20.909582],[-48.646423,-20.911514],[-48.645835,-20.912228],[-48.646405,-20.912688],[-48.64503,-20.914565],[-48.643518,-20.912919],[-48.642655,-20.912817],[-48.642543,-20.913808],[-48.641391,-20.913702],[-48.641167,-20.915776],[-48.640963,-20.916496],[-48.642785,-20.916792],[-48.642779,-20.917153],[-48.641917,-20.91696],[-48.641702,-20.918402],[-48.638876,-20.920891],[-48.640022,-20.921359],[-48.639694,-20.923883],[-48.63816,-20.923681],[-48.632939,-20.919545],[-48.633522,-20.919102],[-48.636341,-20.917064],[-48.636366,-20.909389],[-48.633564,-20.910343],[-48.631624,-20.90535],[-48.629787,-20.906047],[-48.628194,-20.903496],[-48.630594,-20.90362],[-48.632514,-20.903737],[-48.633769,-20.903393],[-48.635671,-20.904683],[-48.637042,-20.902987],[-48.636568,-20.902619],[-48.634816,-20.897899]]]}},{"type":"Feature","properties":{"Nome":"Jurubatuba - Restricao"},"geometry":{"type":"MultiPolygon","coordinates":[[[[-46.711652,-23.67726],[-46.701849,-23.677368],[-46.701907,-23.681882],[-46.697005,-23.681936],[-46.697122,-23.690964],[-46.69222,-23.691018],[-46.692045,-23.677475],[-46.687144,-23.677529],[-46.687028,-23.6685],[-46.691929,-23.668446],[-46.691987,-23.672961],[-46.696889,-23.672907],[-46.69683,-23.668393],[-46.706633,-23.668285],[-46.706691,-23.672799],[-46.711593,-23.672745],[-46.711652,-23.67726]]],[[[-46.726242,-23.663577],[-46.721341,-23.663632],[-46.721278,-23.663633],[-46.721396,-23.672637],[-46.711593,-23.672745],[-46.711416,-23.659202],[-46.721218,-23.659094],[-46.721281,-23.659093],[-46.721223,-23.654603],[-46.726123,-23.654549],[-46.726242,-23.663577]]],[[[-46.721223,-23.654603],[-46.716143,-23.65466],[-46.716084,-23.650184],[-46.711184,-23.650239],[-46.711125,-23.645724],[-46.716025,-23.64567],[-46.716081,-23.649922],[-46.720981,-23.649868],[-46.720926,-23.645616],[-46.716025,-23.64567],[-46.715964,-23.64096],[-46.711064,-23.641015],[-46.711005,-23.6365],[-46.720805,-23.636392],[-46.720855,-23.640199],[-46.720864,-23.640906],[-46.725764,-23.640852],[-46.725883,-23.64988],[-46.721162,-23.649933],[-46.721223,-23.654603]]],[[[-46.682469,-23.677553],[-46.682527,-23.682067],[-46.672723,-23.682174],[-46.672666,-23.677659],[-46.682469,-23.677553]]],[[[-46.731143,-23.663523],[-46.731262,-23.672551],[-46.726361,-23.672606],[-46.726242,-23.663577],[-46.731143,-23.663523]]],[[[-46.706502,-23.654704],[-46.706619,-23.663733],[-46.701718,-23.663786],[-46.701602,-23.654758],[-46.706502,-23.654704]]],[[[-46.682705,-23.700192],[-46.682763,-23.704706],[-46.67786,-23.70476],[-46.677802,-23.700245],[-46.682705,-23.700192]]],[[[-46.692401,-23.700116],[-46.692459,-23.704631],[-46.687557,-23.704684],[-46.687499,-23.70017],[-46.692401,-23.700116]]],[[[-46.706895,-23.681877],[-46.706953,-23.686391],[-46.702051,-23.686445],[-46.701993,-23.681931],[-46.706895,-23.681877]]],[[[-46.691856,-23.659481],[-46.691914,-23.663995],[-46.687013,-23.664049],[-46.686955,-23.659534],[-46.691856,-23.659481]]],[[[-46.681961,-23.65504],[-46.682018,-23.659554],[-46.677117,-23.659607],[-46.67706,-23.655093],[-46.681961,-23.65504]]],[[[-46.701602,-23.654758],[-46.696701,-23.654811],[-46.696643,-23.650297],[-46.701543,-23.650243],[-46.701602,-23.654758]]],[[[-46.750695,-23.654228],[-46.750755,-23.658742],[-46.745854,-23.658798],[-46.745794,-23.654284],[-46.750695,-23.654228]]],[[[-46.706163,-23.627682],[-46.706221,-23.632196],[-46.701322,-23.63225],[-46.701263,-23.627736],[-46.706163,-23.627682]]],[[[-46.691502,-23.623322],[-46.69156,-23.627836],[-46.686661,-23.62789],[-46.686603,-23.623375],[-46.691502,-23.623322]]],[[[-46.701153,-23.618679],[-46.701212,-23.623194],[-46.696312,-23.623247],[-46.696254,-23.618733],[-46.701153,-23.618679]]]]}},{"type":"Feature","properties":{"Nome":"Jurubatuba - Restricao"},"geometry":{"type":"MultiPolygon","coordinates":[[[[-46.696406,-23.632101],[-46.681899,-23.632259],[-46.681726,-23.618715],[-46.691371,-23.618611],[-46.691316,-23.614346],[-46.706014,-23.614186],[-46.706129,-23.62312],[-46.710991,-23.623066],[-46.711112,-23.632441],[-46.716012,-23.632387],[-46.716012,-23.632387],[-46.725812,-23.632278],[-46.725866,-23.636395],[-46.730689,-23.636341],[-46.730927,-23.654398],[-46.730927,-23.654398],[-46.730992,-23.65931],[-46.735969,-23.659254],[-46.736207,-23.677311],[-46.726404,-23.677421],[-46.71642,-23.677532],[-46.716473,-23.681589],[-46.711753,-23.681641],[-46.711872,-23.690826],[-46.711798,-23.690827],[-46.707306,-23.690877],[-46.702201,-23.690933],[-46.70226,-23.695479],[-46.697181,-23.695535],[-46.697355,-23.708946],[-46.672827,-23.709213],[-46.672656,-23.695802],[-46.687377,-23.695642],[-46.68726,-23.68655],[-46.667936,-23.686759],[-46.667765,-23.673338],[-46.672667,-23.673285],[-46.682238,-23.673182],[-46.682122,-23.664074],[-46.672313,-23.664181],[-46.672141,-23.650637],[-46.677253,-23.650582],[-46.677253,-23.650582],[-46.686843,-23.650478],[-46.686901,-23.654997],[-46.691755,-23.654944],[-46.691642,-23.646105],[-46.701822,-23.645994],[-46.701822,-23.645994],[-46.706723,-23.64594],[-46.706659,-23.641018],[-46.706602,-23.63666],[-46.696466,-23.636771],[-46.696406,-23.632101]],[[-46.696312,-23.623247],[-46.701212,-23.623194],[-46.701153,-23.618679],[-46.696254,-23.618733],[-46.696312,-23.623247]],[[-46.686661,-23.62789],[-46.69156,-23.627836],[-46.691502,-23.623322],[-46.686603,-23.623375],[-46.686661,-23.62789]],[[-46.701322,-23.63225],[-46.706221,-23.632196],[-46.706163,-23.627682],[-46.701263,-23.627736],[-46.701322,-23.63225]],[[-46.677117,-23.659607],[-46.682018,-23.659554],[-46.681961,-23.65504],[-46.67706,-23.655093],[-46.677117,-23.659607]],[[-46.687013,-23.664049],[-46.691914,-23.663995],[-46.691856,-23.659481],[-46.686955,-23.659534],[-46.687013,-23.664049]],[[-46.702051,-23.686445],[-46.706953,-23.686391],[-46.706895,-23.681877],[-46.701993,-23.681931],[-46.702051,-23.686445]],[[-46.687557,-23.704684],[-46.692459,-23.704631],[-46.692401,-23.700116],[-46.687499,-23.70017],[-46.687557,-23.704684]],[[-46.67786,-23.70476],[-46.682763,-23.704706],[-46.682705,-23.700192],[-46.677802,-23.700245],[-46.67786,-23.70476]],[[-46.672723,-23.682174],[-46.682527,-23.682067],[-46.682469,-23.677553],[-46.672666,-23.677659],[-46.672723,-23.682174]],[[-46.701718,-23.663786],[-46.706619,-23.663733],[-46.706502,-23.654704],[-46.701602,-23.654758],[-46.701543,-23.650243],[-46.696643,-23.650297],[-46.696701,-23.654811],[-46.701602,-23.654758],[-46.701718,-23.663786]],[[-46.726361,-23.672606],[-46.731262,-23.672551],[-46.731143,-23.663523],[-46.726242,-23.663577],[-46.726123,-23.654549],[-46.721223,-23.654603],[-46.721162,-23.649933],[-46.725883,-23.64988],[-46.725764,-23.640852],[-46.720864,-23.640906],[-46.720855,-23.640199],[-46.720805,-23.636392],[-46.711005,-23.6365],[-46.711064,-23.641015],[-46.715964,-23.64096],[-46.716025,-23.64567],[-46.711125,-23.645724],[-46.711184,-23.650239],[-46.716084,-23.650184],[-46.716143,-23.65466],[-46.721223,-23.654603],[-46.721281,-23.659093],[-46.721218,-23.659094],[-46.711416,-23.659202],[-46.711593,-23.672745],[-46.706691,-23.672799],[-46.706633,-23.668285],[-46.69683,-23.668393],[-46.696889,-23.672907],[-46.691987,-23.672961],[-46.691929,-23.668446],[-46.687028,-23.6685],[-46.687144,-23.677529],[-46.692045,-23.677475],[-46.69222,-23.691018],[-46.697122,-23.690964],[-46.697005,-23.681936],[-46.701907,-23.681882],[-46.701849,-23.677368],[-46.711652,-23.67726],[-46.711593,-23.672745],[-46.721396,-23.672637],[-46.721278,-23.663633],[-46.721341,-23.663632],[-46.726242,-23.663577],[-46.726361,-23.672606]]],[[[-46.755406,-23.649544],[-46.755528,-23.658675],[-46.755587,-23.663086],[-46.740884,-23.663252],[-46.740705,-23.649709],[-46.755406,-23.649544]],[[-46.745854,-23.658798],[-46.750755,-23.658742],[-46.750695,-23.654228],[-46.745794,-23.654284],[-46.745854,-23.658798]]],[[[-46.720926,-23.645616],[-46.720981,-23.649868],[-46.716081,-23.649922],[-46.716025,-23.64567],[-46.720926,-23.645616]]]]}},{"type":"Feature","properties":{"Nome":"Jurubatuba - Restricao"},"geometry":{"type":"MultiPolygon","coordinates":[[[[-46.740489,-23.636231],[-46.74031,-23.622689],[-46.759908,-23.622467],[-46.760089,-23.63601],[-46.755226,-23.636065],[-46.755348,-23.645202],[-46.760248,-23.645146],[-46.760429,-23.658619],[-46.755528,-23.658675],[-46.755406,-23.649544],[-46.740705,-23.649709],[-46.740668,-23.64971],[-46.740728,-23.654288],[-46.730927,-23.654398],[-46.730689,-23.636341],[-46.740489,-23.636231]]],[[[-46.672667,-23.673285],[-46.672609,-23.668771],[-46.667708,-23.668824],[-46.667623,-23.664231],[-46.667451,-23.650688],[-46.667222,-23.632617],[-46.677022,-23.632511],[-46.677253,-23.650582],[-46.672141,-23.650637],[-46.672313,-23.664181],[-46.682122,-23.664074],[-46.682238,-23.673182],[-46.672667,-23.673285]]],[[[-46.68241,-23.686603],[-46.68726,-23.68655],[-46.687377,-23.695642],[-46.672656,-23.695802],[-46.672714,-23.700332],[-46.668105,-23.700382],[-46.667936,-23.686759],[-46.68241,-23.686603]]],[[[-46.711872,-23.690826],[-46.711934,-23.695521],[-46.711859,-23.695522],[-46.706917,-23.695577],[-46.706974,-23.699948],[-46.702142,-23.700002],[-46.702257,-23.708892],[-46.697355,-23.708946],[-46.697181,-23.695535],[-46.70226,-23.695479],[-46.702201,-23.690933],[-46.707306,-23.690877],[-46.711798,-23.690827],[-46.711872,-23.690826]]],[[[-46.701822,-23.645994],[-46.701759,-23.641072],[-46.696523,-23.641129],[-46.691622,-23.641183],[-46.691506,-23.632154],[-46.696406,-23.632101],[-46.696466,-23.636771],[-46.706602,-23.63666],[-46.706659,-23.641018],[-46.706723,-23.64594],[-46.701822,-23.645994]]],[[[-46.71589,-23.623012],[-46.716012,-23.632387],[-46.711112,-23.632441],[-46.710991,-23.623066],[-46.71589,-23.623012]]],[[[-46.711872,-23.690826],[-46.711753,-23.681641],[-46.716473,-23.681589],[-46.716599,-23.690774],[-46.711872,-23.690826]]]]}}]}