{"type":"FeatureCollection","features":[{"type":"Feature","properties":{"Nome":"Lagoa de Carapicu"},"geometry":{"type":"Polygon","coordinates":[[[-46.81689,-23.522133],[-46.817946,-23.520586],[-46.817547,-23.520049],[-46.816626,-23.51717],[-46.815519,-23.515016],[-46.815701,-23.51402],[-46.829209,-23.513681],[-46.832135,-23.512834],[-46.832911,-23.512283],[-46.835291,-23.514423],[-46.835591,-23.51487],[-46.836093,-23.515768],[-46.836706,-23.517657],[-46.836516,-23.51802],[-46.835641,-23.518482],[-46.833506,-23.519861],[-46.832338,-23.520417],[-46.830287,-23.520802],[-46.827842,-23.521012],[-46.826966,-23.521383],[-46.826382,-23.521661],[-46.825508,-23.522213],[-46.822867,-23.522424],[-46.820235,-23.523268],[-46.817397,-23.523391],[-46.81689,-23.522133]]]}}]}