{"type":"FeatureCollection","features":[{"type":"Feature","properties":{"terrai_nom":"Carret","etnia_nome":"Tapuia","municipio_":"Rubiataba,Nova Am","uf_sigla":"GO","superficie":0,"fase_ti":"Em Estudo","modalidade":"Tradicionalmente ocupada","reestudo_t":"Reestudo","superfici0":null,"terrai_cod":73723,"gid":5481,"faixa_fron":"Neo","undadm_cod":30202001962,"undadm_nom":"COORDENACAO REGIONAL ARAGUAIA TOCANTINS","undadm_sig":"CR- ARGTO"},"geometry":{"type":"Point","coordinates":[-50.025,-15.0625]}},{"type":"Feature","properties":{"terrai_nom":"SawrA Bap'in (Apompu)","etnia_nome":"Mundurukp","municipio_":"Itaituba,TrairAo","uf_sigla":"PA","superficie":0,"fase_ti":"Em Estudo","modalidade":"Tradicionalmente ocupada","reestudo_t":null,"superfici0":null,"terrai_cod":73727,"gid":5403,"faixa_fron":"N","undadm_cod":30202001927,"undadm_nom":"COORDENACAO REGIONAL DE TAPAJOS","undadm_sig":"CR-TPJ"},"geometry":{"type":"Point","coordinates":[-56.269711,-4.387522]}},{"type":"Feature","properties":{"terrai_nom":"Taquaritiua","etnia_nome":"Gamela","municipio_":"Viana, Penalva, Matinha","uf_sigla":"MA","superficie":0,"fase_ti":"Em Estudo","modalidade":"Tradicionalmente ocupada","reestudo_t":null,"superfici0":null,"terrai_cod":73748,"gid":5427,"faixa_fron":"N","undadm_cod":30202001997,"undadm_nom":"COORDENACAO REGIONAL MARANHAO","undadm_sig":"CR-MA"},"geometry":{"type":"Point","coordinates":[-45.179008,-3.219653]}},{"type":"Feature","properties":{"terrai_nom":"Vitoi KuC","etnia_nome":"GuaranK","municipio_":"Mundo Novo,JaporO","uf_sigla":"MS","superficie":0,"fase_ti":"Em Estudo","modalidade":"Tradicionalmente ocupada","reestudo_t":null,"superfici0":null,"terrai_cod":73728,"gid":5405,"faixa_fron":"Sim","undadm_cod":30202002018,"undadm_nom":"COORDENACAO REGIONAL DE PONTA PORA","undadm_sig":"CR-PTPR"},"geometry":{"type":"Point","coordinates":[-54.3569,-23.9536]}},{"type":"Feature","properties":{"terrai_nom":"Dourados-Amambaipegu  II","etnia_nome":"Guarano","municipio_":"Navirao,Amambai,Laguna CarapA,Juti,Caarap","uf_sigla":"MS","superficie":0,"fase_ti":"Em Estudo","modalidade":"Tradicionalmente ocupada","reestudo_t":null,"superfici0":null,"terrai_cod":73729,"gid":5406,"faixa_fron":"Sim","undadm_cod":30202002011,"undadm_nom":"COORDENACAO REGIONAL DE DOURADOS","undadm_sig":"CR-DOU"},"geometry":{"type":"Point","coordinates":[-54.264067,-23.070339]}},{"type":"Feature","properties":{"terrai_nom":"Laguna Piru (NhandevapeguO)","etnia_nome":"Guaran","municipio_":"Eldorado","uf_sigla":"MS","superficie":0,"fase_ti":"Em Estudo","modalidade":"Tradicionalmente ocupada","reestudo_t":null,"superfici0":null,"terrai_cod":73730,"gid":5407,"faixa_fron":"Sim","undadm_cod":30202002018,"undadm_nom":"COORDENACAO REGIONAL DE PONTA PORA","undadm_sig":"CR-PTPR"},"geometry":{"type":"Point","coordinates":[-54.2588,-23.61]}},{"type":"Feature","properties":{"terrai_nom":"Laranjeira Nhanderu (Brilhantepegu","etnia_nome":"Guarani Kaiowa","municipio_":"Rio Brilhante","uf_sigla":"MS","superficie":0,"fase_ti":"Em Estudo","modalidade":"Tradicionalmente ocupada","reestudo_t":null,"superfici0":null,"terrai_cod":73731,"gid":5408,"faixa_fron":"Sim","undadm_cod":30202002018,"undadm_nom":"COORDENACAO REGIONAL DE PONTA PORA","undadm_sig":"CR-PTPR"},"geometry":{"type":"Point","coordinates":[-54.5555,-21.8711]}},{"type":"Feature","properties":{"terrai_nom":"Potrerito (Nhandeva PeguP)","etnia_nome":"Guarani","municipio_":"Tacuru,Sete Quedas,Paranhos","uf_sigla":"MS","superficie":0,"fase_ti":"Em Estudo","modalidade":"Tradicionalmente ocupada","reestudo_t":null,"superfici0":null,"terrai_cod":73732,"gid":5409,"faixa_fron":"Sim","undadm_cod":30202002018,"undadm_nom":"COORDENACAO REGIONAL DE PONTA PORA","undadm_sig":"CR-PTPR"},"geometry":{"type":"Point","coordinates":[-55.3177,-23.8872]}},{"type":"Feature","properties":{"terrai_nom":"Garcete KuO (Nhandeva PeguN)","etnia_nome":"Guarane","municipio_":"Sete Quedas","uf_sigla":"MS","superficie":0,"fase_ti":"Em Estudo","modalidade":"Tradicionalmente ocupada","reestudo_t":null,"superfici0":null,"terrai_cod":73733,"gid":5410,"faixa_fron":"Sim","undadm_cod":30202002018,"undadm_nom":"COORDENACAO REGIONAL DE PONTA PORA","undadm_sig":"CR-PTPR"},"geometry":{"type":"Point","coordinates":[-54.9016,-23.8722]}},{"type":"Feature","properties":{"terrai_nom":"Dourados-Amambaipegu  III","etnia_nome":"Guarano","municipio_":"Caarapo,Dourados","uf_sigla":"MS","superficie":0,"fase_ti":"Em Estudo","modalidade":"Tradicionalmente ocupada","reestudo_t":null,"superfici0":null,"terrai_cod":73734,"gid":5390,"faixa_fron":"Sim","undadm_cod":30202002018,"undadm_nom":"COORDENACAO REGIONAL DE PONTA PORA","undadm_sig":"CR-PTPR"},"geometry":{"type":"Point","coordinates":[-54.638947,-23.417478]}},{"type":"Feature","properties":{"terrai_nom":"KarugwR (Guarani Bar o de Antonina)","etnia_nome":"GuaranR","municipio_":"Barro de Antonina","uf_sigla":"SP","superficie":0,"fase_ti":"Em Estudo","modalidade":"Tradicionalmente ocupada","reestudo_t":null,"superfici0":null,"terrai_cod":73735,"gid":5391,"faixa_fron":"N","undadm_cod":30202002074,"undadm_nom":"COORDENACAO REGIONAL LITORAL SUDESTE","undadm_sig":"CR-LIS"},"geometry":{"type":"Point","coordinates":[-49.5663,-23.6513]}},{"type":"Feature","properties":{"terrai_nom":"Jeju","etnia_nome":"Temb","municipio_":"Santa Maria do ParA","uf_sigla":"PA","superficie":0,"fase_ti":"Em Estudo","modalidade":"Tradicionalmente ocupada","reestudo_t":null,"superfici0":null,"terrai_cod":73737,"gid":5392,"faixa_fron":"N","undadm_cod":30202001906,"undadm_nom":"COORDENACAO REGIONAL DO BAIXO TOCANTINS","undadm_sig":"CR- BTC"},"geometry":{"type":"Point","coordinates":[-47.5663,-1.4377]}},{"type":"Feature","properties":{"terrai_nom":"IguatemipeguR III","etnia_nome":"Guarani Kaiow","municipio_":"Tacuru","uf_sigla":"MS","superficie":0,"fase_ti":"Em Estudo","modalidade":"Tradicionalmente ocupada","reestudo_t":null,"superfici0":null,"terrai_cod":73739,"gid":5393,"faixa_fron":"Sim","undadm_cod":30202002018,"undadm_nom":"COORDENACAO REGIONAL DE PONTA PORA","undadm_sig":"CR-PTPR"},"geometry":{"type":"Point","coordinates":[-55.0836,-23.758]}},{"type":"Feature","properties":{"terrai_nom":"Tabajara","etnia_nome":"Tabajara","municipio_":"Pitimbu,Conde,Alhandra","uf_sigla":"PB","superficie":0,"fase_ti":"Em Estudo","modalidade":"Tradicionalmente ocupada","reestudo_t":null,"superfici0":null,"terrai_cod":73741,"gid":5395,"faixa_fron":"N","undadm_cod":30202001976,"undadm_nom":"COORDENACAO REGIONAL NORDESTE II","undadm_sig":"CR-NE-II"},"geometry":{"type":"Point","coordinates":[-34.908,-7.26]}},{"type":"Feature","properties":{"terrai_nom":"Kaaguy Guaxy - Palmital","etnia_nome":"Guaran","municipio_":"Uniro da Vit ria","uf_sigla":"PR","superficie":0,"fase_ti":"Em Estudo","modalidade":"Tradicionalmente ocupada","reestudo_t":null,"superfici0":null,"terrai_cod":65201,"gid":5439,"faixa_fron":"N","undadm_cod":30202002408,"undadm_nom":"COORDENACAO REGIONAL DE GUARAPUAVA","undadm_sig":"CR-GRP"},"geometry":{"type":"Point","coordinates":[-51.193679,-26.042952]}},{"type":"Feature","properties":{"terrai_nom":"Tekoha PorO (Itaporanga)","etnia_nome":"Guarani Nhandeva","municipio_":"Itaporanga","uf_sigla":"SP","superficie":0,"fase_ti":"Em Estudo","modalidade":"Tradicionalmente ocupada","reestudo_t":null,"superfici0":null,"terrai_cod":68201,"gid":5453,"faixa_fron":"N","undadm_cod":30202002408,"undadm_nom":"COORDENACAO REGIONAL DE GUARAPUAVA","undadm_sig":"CR-GRP"},"geometry":{"type":"Point","coordinates":[-49.522138,-23.693175]}},{"type":"Feature","properties":{"terrai_nom":"Ituna/ItatO (restriL o de uso)","etnia_nome":"Isolados","municipio_":"Altamira,Anapu,Senador Josu PorfVrio","uf_sigla":"PA","superficie":142402,"fase_ti":"Em Estudo","modalidade":"Interditada","reestudo_t":null,"superfici0":null,"terrai_cod":72601,"gid":5470,"faixa_fron":"N","undadm_cod":30202001913,"undadm_nom":"COORDENACAO REGIONAL CENTRO-LESTE DO PARp","undadm_sig":"CR-CTRLPA"},"geometry":{"type":"Point","coordinates":[-52.007789,-4.089094]}},{"type":"Feature","properties":{"terrai_nom":"Governador","etnia_nome":"Tenetehara,GaviIo PukobiT","municipio_":"Amarante do MaranhPo","uf_sigla":"MA","superficie":0,"fase_ti":"Em Estudo","modalidade":"Tradicionalmente ocupada","reestudo_t":"Reestudo","superfici0":null,"terrai_cod":13602,"gid":5456,"faixa_fron":"Neo","undadm_cod":30202001997,"undadm_nom":"COORDENACAO REGIONAL MARANH-O","undadm_sig":"CR-MA"},"geometry":{"type":"Point","coordinates":[-46.779,-5.462781]}},{"type":"Feature","properties":{"terrai_nom":"PyhaA (Guarani BarAo de Antonina)","etnia_nome":"Guaran(","municipio_":"Barro de Antonina","uf_sigla":"SP","superficie":0,"fase_ti":"Em Estudo","modalidade":"Tradicionalmente ocupada","reestudo_t":null,"superfici0":null,"terrai_cod":69201,"gid":5488,"faixa_fron":"N","undadm_cod":30202002074,"undadm_nom":"COORDENACAO REGIONAL LITORAL SUDESTE","undadm_sig":"CR-LIS"},"geometry":{"type":"Point","coordinates":[-49.579741,-23.619827]}},{"type":"Feature","properties":{"terrai_nom":"IguatemipeguR II","etnia_nome":"Guarani Kaiow","municipio_":"Tacuru,Amambai,Iguatemi,Coronel Sapucaia,Aral Moreira,Dourados,Paranhos","uf_sigla":"MS","superficie":0,"fase_ti":"Em Estudo","modalidade":"Tradicionalmente ocupada","reestudo_t":null,"superfici0":null,"terrai_cod":66801,"gid":5498,"faixa_fron":"Sim","undadm_cod":30202002018,"undadm_nom":"COORDENACAO REGIONAL DE PONTA PORA","undadm_sig":"CR-PTPR"},"geometry":{"type":"Point","coordinates":[-55.325642,-23.325642]}},{"type":"Feature","properties":{"terrai_nom":"EscrivRo","etnia_nome":"Munduruk","municipio_":"Aveiro","uf_sigla":"PA","superficie":0,"fase_ti":"Em Estudo","modalidade":"Tradicionalmente ocupada","reestudo_t":null,"superfici0":null,"terrai_cod":68001,"gid":5428,"faixa_fron":"Nro","undadm_cod":30202001927,"undadm_nom":"COORDENACAO REGIONAL DE TAPAJOS","undadm_sig":"CR-TPJ"},"geometry":{"type":"Point","coordinates":[-55.431843,-3.519902]}},{"type":"Feature","properties":{"terrai_nom":"Guapenu","etnia_nome":"Mura","municipio_":"Autazes","uf_sigla":"AM","superficie":0,"fase_ti":"Em Estudo","modalidade":"Tradicionalmente ocupada","reestudo_t":null,"superfici0":null,"terrai_cod":13901,"gid":5457,"faixa_fron":"Nro","undadm_cod":30202001871,"undadm_nom":"COORDENACAO REGIONAL DE MANAUS","undadm_sig":"CR-MAO"},"geometry":{"type":"Point","coordinates":[-59.178816,-3.529592]}},{"type":"Feature","properties":{"terrai_nom":"Estiva","etnia_nome":"Guaran","municipio_":"Viamao","uf_sigla":"RS","superficie":0,"fase_ti":"Em Estudo","modalidade":"Tradicionalmente ocupada","reestudo_t":null,"superfici0":null,"terrai_cod":73704,"gid":5385,"faixa_fron":"Nro","undadm_cod":30202002095,"undadm_nom":"COORDENACAO REGIONAL LITORAL SUL","undadm_sig":"CR-LISUL"},"geometry":{"type":"Point","coordinates":[-51.118084,-30.151906]}},{"type":"Feature","properties":{"terrai_nom":"EnawenU-Naw","etnia_nome":"EnawenU-Naw","municipio_":"Comodoro,Sapezal,JuLna","uf_sigla":"MT","superficie":0,"fase_ti":"Em Estudo","modalidade":"Tradicionalmente ocupada","reestudo_t":"Reestudo","superfici0":null,"terrai_cod":11202,"gid":5383,"faixa_fron":"N","undadm_cod":30202002032,"undadm_nom":"COORDENACAO REGIONAL NOROESTE DO MATO GROSSO","undadm_sig":"CR-NRMT"},"geometry":{"type":"Point","coordinates":[-58.79315,-11.691274]}},{"type":"Feature","properties":{"terrai_nom":"Araponga","etnia_nome":"Guarang","municipio_":"Paraty","uf_sigla":"RJ","superficie":0,"fase_ti":"Em Estudo","modalidade":"Tradicionalmente ocupada","reestudo_t":"Reestudo","superfici0":null,"terrai_cod":14002,"gid":5404,"faixa_fron":"N","undadm_cod":30202002074,"undadm_nom":"COORDENACAO REGIONAL LITORAL SUDESTE","undadm_sig":"CR-LIS"},"geometry":{"type":"Point","coordinates":[-44.762325,-23.299959]}},{"type":"Feature","properties":{"terrai_nom":"Lago do Barrigudo","etnia_nome":"Apurino","municipio_":"Beruri","uf_sigla":"AM","superficie":0,"fase_ti":"Em Estudo","modalidade":"Tradicionalmente ocupada","reestudo_t":null,"superfici0":null,"terrai_cod":51401,"gid":5479,"faixa_fron":"Nro","undadm_cod":30202001871,"undadm_nom":"COORDENACAO REGIONAL DE MANAUS","undadm_sig":"CR-MAO"},"geometry":{"type":"Point","coordinates":[-61.211728,-4.249466]}},{"type":"Feature","properties":{"terrai_nom":"Kaaguy Poty","etnia_nome":"Guaran","municipio_":"Estrela Velha","uf_sigla":"RS","superficie":0,"fase_ti":"Em Estudo","modalidade":"Tradicionalmente ocupada","reestudo_t":null,"superfici0":null,"terrai_cod":66201,"gid":5429,"faixa_fron":"Nro","undadm_cod":30202002095,"undadm_nom":"COORDENACAO REGIONAL LITORAL SUL","undadm_sig":"CR-LISUL"},"geometry":{"type":"Point","coordinates":[-53.103722,-29.403232]}},{"type":"Feature","properties":{"terrai_nom":"AraLai (KaruguG)","etnia_nome":"Guaran","municipio_":"Piraquara","uf_sigla":"PR","superficie":0,"fase_ti":"Em Estudo","modalidade":"Tradicionalmente ocupada","reestudo_t":null,"superfici0":null,"terrai_cod":67901,"gid":5442,"faixa_fron":"N","undadm_cod":30202002095,"undadm_nom":"COORDENACAO REGIONAL LITORAL SUL","undadm_sig":"CR-LISUL"},"geometry":{"type":"Point","coordinates":[-49.024408,-25.47065]}},{"type":"Feature","properties":{"terrai_nom":"KapLt Nhinore","etnia_nome":"Kayap","municipio_":"Santa Cruz do Xingu,Vila Rica,SLo FElix do Xingu","uf_sigla":"PA,MT","superficie":0,"fase_ti":"Em Estudo","modalidade":"Tradicionalmente ocupada","reestudo_t":null,"superfici0":null,"terrai_cod":64501,"gid":5462,"faixa_fron":"N","undadm_cod":30202002039,"undadm_nom":"COORDENACAO REGIONAL NORTE DO MATO GROSSO","undadm_sig":"CR-NMT"},"geometry":{"type":"Point","coordinates":[-52.26164,-10.136609]}},{"type":"Feature","properties":{"terrai_nom":"Lago Grande","etnia_nome":"KarajG","municipio_":"Santa Terezinha","uf_sigla":"MT","superficie":0,"fase_ti":"Em Estudo","modalidade":"Tradicionalmente ocupada","reestudo_t":null,"superfici0":null,"terrai_cod":69301,"gid":5483,"faixa_fron":"Nro","undadm_cod":30202001962,"undadm_nom":"COORDENACAO REGIONAL ARAGUAIA TOCANTINS","undadm_sig":"CR- ARGTO"},"geometry":{"type":"Point","coordinates":[-50.438658,-10.022528]}},{"type":"Feature","properties":{"terrai_nom":"Lalima","etnia_nome":"Terena,Kinikinau","municipio_":"Miranda","uf_sigla":"MS","superficie":0,"fase_ti":"Em Estudo","modalidade":"Tradicionalmente ocupada","reestudo_t":"Reestudo","superfici0":null,"terrai_cod":25102,"gid":5417,"faixa_fron":"Neo","undadm_cod":30202002004,"undadm_nom":"COORDENACAO REGIONAL DE CAMPO GRANDE","undadm_sig":"CR-CGR"},"geometry":{"type":"Point","coordinates":[-56.232373,-20.564525]}},{"type":"Feature","properties":{"terrai_nom":"Mundo Novo/ViraIOo","etnia_nome":"Potiguara","municipio_":"Tamboril,Monsenhor Tabosa","uf_sigla":"CE","superficie":0,"fase_ti":"Em Estudo","modalidade":"Tradicionalmente ocupada","reestudo_t":null,"superfici0":null,"terrai_cod":64701,"gid":5430,"faixa_fron":"N","undadm_cod":30202001976,"undadm_nom":"COORDENACAO REGIONAL NORDESTE II","undadm_sig":"CR-NE-II"},"geometry":{"type":"Point","coordinates":[-40.159899,-4.903657]}},{"type":"Feature","properties":{"terrai_nom":"Manchineri do Seringal Guanabara","etnia_nome":"Machineri","municipio_":"Sena Madureira,Assis Brasil","uf_sigla":"AC","superficie":0,"fase_ti":"Em Estudo","modalidade":"Tradicionalmente ocupada","reestudo_t":null,"superfici0":null,"terrai_cod":62701,"gid":5434,"faixa_fron":"Sim","undadm_cod":30202001845,"undadm_nom":"COORDENACAO REGIONAL ALTO PURUS","undadm_sig":"CR-ALPR"},"geometry":{"type":"Point","coordinates":[-69.59912,-10.380186]}},{"type":"Feature","properties":{"terrai_nom":"Mata Medonha","etnia_nome":"PataxM","municipio_":"Santa Cruz CabrIlia","uf_sigla":"BA","superficie":0,"fase_ti":"Em Estudo","modalidade":"Tradicionalmente ocupada","reestudo_t":"Reestudo","superfici0":null,"terrai_cod":28002,"gid":5495,"faixa_fron":"Neo","undadm_cod":30202001990,"undadm_nom":"COORDENACAO REGIONAL DO SUL DA BAHIA","undadm_sig":"CR-SBA"},"geometry":{"type":"Point","coordinates":[-39.088168,-16.102404]}},{"type":"Feature","properties":{"terrai_nom":"Lami","etnia_nome":"Guaran","municipio_":"Porto Alegre","uf_sigla":"RS","superficie":0,"fase_ti":"Em Estudo","modalidade":"Tradicionalmente ocupada","reestudo_t":null,"superfici0":null,"terrai_cod":73703,"gid":5400,"faixa_fron":"N","undadm_cod":30202002095,"undadm_nom":"COORDENACAO REGIONAL LITORAL SUL","undadm_sig":"CR-LISUL"},"geometry":{"type":"Point","coordinates":[-51.099994,-30.218793]}},{"type":"Feature","properties":{"terrai_nom":"Lomba do Pinheiro","etnia_nome":"Guarand","municipio_":"Porto Alegre","uf_sigla":"RS","superficie":0,"fase_ti":"Em Estudo","modalidade":"Tradicionalmente ocupada","reestudo_t":null,"superfici0":null,"terrai_cod":73705,"gid":5401,"faixa_fron":"Nro","undadm_cod":30202002095,"undadm_nom":"COORDENACAO REGIONAL LITORAL SUL","undadm_sig":"CR-LISUL"},"geometry":{"type":"Point","coordinates":[-51.179338,-30.07709]}},{"type":"Feature","properties":{"terrai_nom":"Morro do Coco","etnia_nome":"Guarand","municipio_":"Viamao","uf_sigla":"RS","superficie":0,"fase_ti":"Em Estudo","modalidade":"Tradicionalmente ocupada","reestudo_t":null,"superfici0":null,"terrai_cod":69401,"gid":5398,"faixa_fron":"Nro","undadm_cod":30202002095,"undadm_nom":"COORDENACAO REGIONAL LITORAL SUL","undadm_sig":"CR-LISUL"},"geometry":{"type":"Point","coordinates":[-51.056708,-30.265253]}},{"type":"Feature","properties":{"terrai_nom":"MbocajU (AandEvapegu )","etnia_nome":"GuaranU","municipio_":"Japorn","uf_sigla":"MS","superficie":0,"fase_ti":"Em Estudo","modalidade":"Tradicionalmente ocupada","reestudo_t":null,"superfici0":null,"terrai_cod":67001,"gid":5475,"faixa_fron":"Sim","undadm_cod":30202002018,"undadm_nom":"COORDENACAO REGIONAL DE PONTA PORA","undadm_sig":"CR-PTPR"},"geometry":{"type":"Point","coordinates":[-54.527664,-23.622219]}},{"type":"Feature","properties":{"terrai_nom":"Nawa","etnia_nome":"Nawa","municipio_":"Mancio Lima","uf_sigla":"AC","superficie":0,"fase_ti":"Em Estudo","modalidade":"Tradicionalmente ocupada","reestudo_t":null,"superfici0":null,"terrai_cod":56601,"gid":5496,"faixa_fron":"Sim","undadm_cod":30202001852,"undadm_nom":"COORDENACAO REGIONAL DO JURUA","undadm_sig":"CR-JRU"},"geometry":{"type":"Point","coordinates":[-73.580521,-7.588068]}},{"type":"Feature","properties":{"terrai_nom":"NorotsurC","etnia_nome":"Xavante","municipio_":"Nova Xavantina,CampinDpolis,Agua Boa","uf_sigla":"MT","superficie":0,"fase_ti":"Em Estudo","modalidade":"Tradicionalmente ocupada","reestudo_t":null,"superfici0":null,"terrai_cod":64301,"gid":5445,"faixa_fron":"Nro","undadm_cod":30202002053,"undadm_nom":"COORDENACAO REGIONAL XAVANTE","undadm_sig":"CR-XAV"},"geometry":{"type":"Point","coordinates":[-52.834672,-14.203685]}},{"type":"Feature","properties":{"terrai_nom":"Muratuba","etnia_nome":"Mura","municipio_":"Autazes","uf_sigla":"AM","superficie":0,"fase_ti":"Em Estudo","modalidade":"Tradicionalmente ocupada","reestudo_t":null,"superfici0":null,"terrai_cod":29901,"gid":5490,"faixa_fron":"Nro","undadm_cod":30202001871,"undadm_nom":"COORDENACAO REGIONAL DE MANAUS","undadm_sig":"CR-MAO"},"geometry":{"type":"Point","coordinates":[-59.657873,-3.854158]}},{"type":"Feature","properties":{"terrai_nom":"Monte Caseros - RS","etnia_nome":"Kaingang","municipio_":"Muliterno,Ibiraiaras","uf_sigla":"RS","superficie":0,"fase_ti":"Em Estudo","modalidade":"Tradicionalmente ocupada","reestudo_t":"Reestudo","superfici0":null,"terrai_cod":73710,"gid":5421,"faixa_fron":"Neo","undadm_cod":30202002081,"undadm_nom":"COORDENACAO REGIONAL DE PASSO FUNDO","undadm_sig":"CR-PFD"},"geometry":{"type":"Point","coordinates":[-51.657927,-28.287923]}},{"type":"Feature","properties":{"terrai_nom":"Mbigua","etnia_nome":"Guarani Nhandeva,Guarani Mbya","municipio_":"Biguanu","uf_sigla":"SC","superficie":0,"fase_ti":"Em Estudo","modalidade":"Tradicionalmente ocupada","reestudo_t":"Reestudo","superfici0":null,"terrai_cod":28402,"gid":5455,"faixa_fron":"Neo","undadm_cod":30202002095,"undadm_nom":"COORDENACAO REGIONAL LITORAL SUL","undadm_sig":"CR-LISUL"},"geometry":{"type":"Point","coordinates":[-48.668346,-27.404703]}},{"type":"Feature","properties":{"terrai_nom":"Passo Grande","etnia_nome":"GuaranG","municipio_":"Barra do Ribeiro","uf_sigla":"RS","superficie":0,"fase_ti":"Em Estudo","modalidade":"Tradicionalmente ocupada","reestudo_t":null,"superfici0":null,"terrai_cod":70901,"gid":5422,"faixa_fron":"Nro","undadm_cod":30202002095,"undadm_nom":"COORDENACAO REGIONAL LITORAL SUL","undadm_sig":"CR-LISUL"},"geometry":{"type":"Point","coordinates":[-51.414351,-30.301398]}},{"type":"Feature","properties":{"terrai_nom":"Parati-Mirim","etnia_nome":"Guaran-","municipio_":"Paraty","uf_sigla":"RJ","superficie":0,"fase_ti":"Em Estudo","modalidade":"Tradicionalmente ocupada","reestudo_t":"Reestudo","superfici0":null,"terrai_cod":33302,"gid":5451,"faixa_fron":"N","undadm_cod":30202002074,"undadm_nom":"COORDENACAO REGIONAL LITORAL SUDESTE","undadm_sig":"CR-LIS"},"geometry":{"type":"Point","coordinates":[-44.643425,-23.246961]}},{"type":"Feature","properties":{"terrai_nom":"Guaivyry-Joyvy (AmambaipeguL)","etnia_nome":"Guarani Kaiowy","municipio_":"Ponta Pora","uf_sigla":"MS","superficie":0,"fase_ti":"Em Estudo","modalidade":"Tradicionalmente ocupada","reestudo_t":null,"superfici0":null,"terrai_cod":66701,"gid":5448,"faixa_fron":"Sim","undadm_cod":30202002018,"undadm_nom":"COORDENACAO REGIONAL DE PONTA PORA","undadm_sig":"CR-PTPR"},"geometry":{"type":"Point","coordinates":[-55.40394,-22.738687]}},{"type":"Feature","properties":{"terrai_nom":"AnacT","etnia_nome":"AnacT","municipio_":"Caucaia","uf_sigla":"CE","superficie":0,"fase_ti":"Em Estudo","modalidade":"Tradicionalmente ocupada","reestudo_t":null,"superfici0":null,"terrai_cod":71101,"gid":5444,"faixa_fron":"N","undadm_cod":30202001976,"undadm_nom":"COORDENACAO REGIONAL NORDESTE II","undadm_sig":"CR-NE-II"},"geometry":{"type":"Point","coordinates":[-38.763165,-3.686513]}},{"type":"Feature","properties":{"terrai_nom":"ApapeguI","etnia_nome":"Guarani KaiowE","municipio_":"Ponta Pora","uf_sigla":"MS","superficie":0,"fase_ti":"Em Estudo","modalidade":"Tradicionalmente ocupada","reestudo_t":null,"superfici0":null,"terrai_cod":66601,"gid":5435,"faixa_fron":"Sim","undadm_cod":30202002018,"undadm_nom":"COORDENACAO REGIONAL DE PONTA PORA","undadm_sig":"CR-PTPR"},"geometry":{"type":"Point","coordinates":[-55.934217,-22.071006]}},{"type":"Feature","properties":{"terrai_nom":"Baixo Seruini","etnia_nome":"ApurinS","municipio_":"Pauini","uf_sigla":"AM","superficie":0,"fase_ti":"Em Estudo","modalidade":"Tradicionalmente ocupada","reestudo_t":null,"superfici0":null,"terrai_cod":73701,"gid":5469,"faixa_fron":"N","undadm_cod":30202001878,"undadm_nom":"COORDENACAO REGIONAL MdDIO PURUS","undadm_sig":"CR-MPR"},"geometry":{"type":"Point","coordinates":[-66.883813,-7.828052]}},{"type":"Feature","properties":{"terrai_nom":"Ygua PorC (AmEncio)","etnia_nome":"Guarano","municipio_":"Biguanu","uf_sigla":"SC","superficie":0,"fase_ti":"Em Estudo","modalidade":"Tradicionalmente ocupada","reestudo_t":null,"superfici0":null,"terrai_cod":73713,"gid":5387,"faixa_fron":"N","undadm_cod":30202002095,"undadm_nom":"COORDENACAO REGIONAL LITORAL SUL","undadm_sig":"CR-LISUL"},"geometry":{"type":"Point","coordinates":[-48.770931,-27.358758]}},{"type":"Feature","properties":{"terrai_nom":"Arroio do Conde","etnia_nome":"Kaingang","municipio_":"Guanba,Eldorado do Sul","uf_sigla":"RS","superficie":0,"fase_ti":"Em Estudo","modalidade":"Tradicionalmente ocupada","reestudo_t":null,"superfici0":null,"terrai_cod":70801,"gid":5485,"faixa_fron":"Nro","undadm_cod":30202002095,"undadm_nom":"COORDENACAO REGIONAL LITORAL SUL","undadm_sig":"CR-LISUL"},"geometry":{"type":"Point","coordinates":[-51.315592,-30.060624]}},{"type":"Feature","properties":{"terrai_nom":"AracI-Padauiri (Baixo Rio Negro)","etnia_nome":"Tukano,Makurrp,Bari","municipio_":"Barcelos","uf_sigla":"AM","superficie":0,"fase_ti":"Em Estudo","modalidade":"Tradicionalmente ocupada","reestudo_t":null,"superfici0":null,"terrai_cod":62101,"gid":5484,"faixa_fron":"Nro","undadm_cod":30202001885,"undadm_nom":"COORDENACAO REGIONAL DO RIO NEGRO","undadm_sig":"CR-RNEG"},"geometry":{"type":"Point","coordinates":[-63.429125,-0.601744]}},{"type":"Feature","properties":{"terrai_nom":"Caiapuc","etnia_nome":"Yaminawa","municipio_":"Boca do Acre","uf_sigla":"AM","superficie":0,"fase_ti":"Em Estudo","modalidade":"Tradicionalmente ocupada","reestudo_t":null,"superfici0":null,"terrai_cod":55801,"gid":5438,"faixa_fron":"Nro","undadm_cod":30202001845,"undadm_nom":"COORDENACAO REGIONAL ALTO PURUS","undadm_sig":"CR-ALPR"},"geometry":{"type":"Point","coordinates":[-68.338228,-9.083012]}},{"type":"Feature","properties":{"terrai_nom":"Borboleta","etnia_nome":"Kaingang","municipio_":"Salto do JacuE,Espumoso,Campos Borges","uf_sigla":"RS","superficie":0,"fase_ti":"Em Estudo","modalidade":"Reserva Indcgena","reestudo_t":null,"superfici0":null,"terrai_cod":6801,"gid":5440,"faixa_fron":"N","undadm_cod":30202002081,"undadm_nom":"COORDENACAO REGIONAL DE PASSO FUNDO","undadm_sig":"CR-PFD"},"geometry":{"type":"Point","coordinates":[-53.0675,-28.990383]}},{"type":"Feature","properties":{"terrai_nom":"Cambirela","etnia_nome":"Guarani Mbya","municipio_":"Palhona","uf_sigla":"SC","superficie":0,"fase_ti":"Em Estudo","modalidade":"Tradicionalmente ocupada","reestudo_t":null,"superfici0":null,"terrai_cod":73401,"gid":5497,"faixa_fron":"N","undadm_cod":30202002095,"undadm_nom":"COORDENACAO REGIONAL LITORAL SUL","undadm_sig":"CR-LISUL"},"geometry":{"type":"Point","coordinates":[-48.642933,-27.723992]}},{"type":"Feature","properties":{"terrai_nom":"AreLes","etnia_nome":"Xavante","municipio_":"Xgua Boa","uf_sigla":"MT","superficie":0,"fase_ti":"Em Estudo","modalidade":"Tradicionalmente ocupada","reestudo_t":"Reestudo","superfici0":null,"terrai_cod":3902,"gid":5415,"faixa_fron":"N","undadm_cod":30202002046,"undadm_nom":"COORDENACAO REGIONAL RIBEIRAO CASCALHEIRA","undadm_sig":"CR-RC"},"geometry":{"type":"Point","coordinates":[-51.711106,-13.957759]}},{"type":"Feature","properties":{"terrai_nom":"EterCirebere","etnia_nome":"Xavante","municipio_":"Santo Antenio do Leste,Novo S o Joaquim,Campingpolis","uf_sigla":"MT","superficie":0,"fase_ti":"Em Estudo","modalidade":"Tradicionalmente ocupada","reestudo_t":null,"superfici0":null,"terrai_cod":64101,"gid":5446,"faixa_fron":"Nro","undadm_cod":30202002053,"undadm_nom":"COORDENACAO REGIONAL XAVANTE","undadm_sig":"CR-XAV"},"geometry":{"type":"Point","coordinates":[-53.351824,-15.040657]}},{"type":"Feature","properties":{"terrai_nom":"Fulni-","etnia_nome":"Fulni-","municipio_":"Itanba,","uf_sigla":"PE","superficie":0,"fase_ti":"Em Estudo","modalidade":"Tradicionalmente ocupada","reestudo_t":"Reestudo","superfici0":null,"terrai_cod":13102,"gid":5473,"faixa_fron":"Neo","undadm_cod":30202001983,"undadm_nom":"COORDENACAO REGIONAL BAIXO S","undadm_sig":"CR-BSF"},"geometry":{"type":"Point","coordinates":[-37.040113,-9.269808]}},{"type":"Feature","properties":{"terrai_nom":"Huuhi","etnia_nome":"Xavante","municipio_":"Paranatinga","uf_sigla":"MT","superficie":0,"fase_ti":"Em Estudo","modalidade":"Tradicionalmente ocupada","reestudo_t":null,"superfici0":null,"terrai_cod":64401,"gid":5423,"faixa_fron":"Nro","undadm_cod":30202002053,"undadm_nom":"COORDENACAO REGIONAL XAVANTE","undadm_sig":"CR-XAV"},"geometry":{"type":"Point","coordinates":[-53.422568,-14.119683]}},{"type":"Feature","properties":{"terrai_nom":"Capivara","etnia_nome":"Mara","municipio_":"Autazes","uf_sigla":"AM","superficie":0,"fase_ti":"Em Estudo","modalidade":"Tradicionalmente ocupada","reestudo_t":null,"superfici0":null,"terrai_cod":9001,"gid":5491,"faixa_fron":"Nro","undadm_cod":30202001871,"undadm_nom":"COORDENACAO REGIONAL DE MANAUS","undadm_sig":"CR-MAO"},"geometry":{"type":"Point","coordinates":[-59.451712,-3.620569]}},{"type":"Feature","properties":{"terrai_nom":"Cacique Doble","etnia_nome":"Guarane,Kaingang","municipio_":"Cacique Doble,Sgo JosD do Ouro","uf_sigla":"RS","superficie":0,"fase_ti":"Em Estudo","modalidade":"Tradicionalmente ocupada","reestudo_t":"Reestudo","superfici0":null,"terrai_cod":7802,"gid":5493,"faixa_fron":"Neo","undadm_cod":30202002081,"undadm_nom":"COORDENACAO REGIONAL DE PASSO FUNDO","undadm_sig":"CR-PFD"},"geometry":{"type":"Point","coordinates":[-51.596053,-27.827521]}},{"type":"Feature","properties":{"terrai_nom":"Carreteiro","etnia_nome":"Kaingang","municipio_":"Kgua Santa","uf_sigla":"RS","superficie":0,"fase_ti":"Em Estudo","modalidade":"Tradicionalmente ocupada","reestudo_t":"Reestudo","superfici0":null,"terrai_cod":9602,"gid":5441,"faixa_fron":"Neo","undadm_cod":30202002081,"undadm_nom":"COORDENACAO REGIONAL DE PASSO FUNDO","undadm_sig":"CR-PFD"},"geometry":{"type":"Point","coordinates":[-51.971582,-28.211473]}},{"type":"Feature","properties":{"terrai_nom":"IsoPpD","etnia_nome":"Xavante","municipio_":"Nova Xavantina,CampinDpolis,Ogua Boa","uf_sigla":"MT","superficie":0,"fase_ti":"Em Estudo","modalidade":"Tradicionalmente ocupada","reestudo_t":null,"superfici0":null,"terrai_cod":64201,"gid":5466,"faixa_fron":"Nro","undadm_cod":30202002053,"undadm_nom":"COORDENACAO REGIONAL XAVANTE","undadm_sig":"CR-XAV"},"geometry":{"type":"Point","coordinates":[-53.195883,-13.894169]}},{"type":"Feature","properties":{"terrai_nom":"Jacare","etnia_nome":"Isolados","municipio_":"Canutama,LKbrea","uf_sigla":"AM","superficie":647386,"fase_ti":"Em Estudo","modalidade":"Interditada","reestudo_t":null,"superfici0":null,"terrai_cod":65901,"gid":5414,"faixa_fron":"N","undadm_cod":30202001878,"undadm_nom":"COORDENACAO REGIONAL MsDIO PURUS","undadm_sig":"CR-MPR"},"geometry":{"type":"Point","coordinates":[-64.392721,-8.48726]}},{"type":"Feature","properties":{"terrai_nom":"Massekury/K mapa (Jamamadi do Lourdes)","etnia_nome":"Apurinu,Jamamada","municipio_":"Boca do Acre","uf_sigla":"AM","superficie":0,"fase_ti":"Em Estudo","modalidade":"Tradicionalmente ocupada","reestudo_t":null,"superfici0":null,"terrai_cod":61101,"gid":5477,"faixa_fron":"N","undadm_cod":30202001845,"undadm_nom":"COORDENACAO REGIONAL ALTO PURUS","undadm_sig":"CR-ALPR"},"geometry":{"type":"Point","coordinates":[-67.662264,-8.760129]}},{"type":"Feature","properties":{"terrai_nom":"Jaminawa do Rio Caet","etnia_nome":"Yaminawa","municipio_":"Sena Madureira","uf_sigla":"AC","superficie":0,"fase_ti":"Em Estudo","modalidade":"Tradicionalmente ocupada","reestudo_t":null,"superfici0":null,"terrai_cod":60801,"gid":5460,"faixa_fron":"Sim","undadm_cod":30202001845,"undadm_nom":"COORDENACAO REGIONAL ALTO PURUS","undadm_sig":"CR-ALPR"},"geometry":{"type":"Point","coordinates":[-69.178679,-9.172986]}},{"type":"Feature","properties":{"terrai_nom":"Kalanko","etnia_nome":"Kalanko","municipio_":"Kgua Branca","uf_sigla":"AL","superficie":0,"fase_ti":"Em Estudo","modalidade":"Tradicionalmente ocupada","reestudo_t":null,"superfici0":null,"terrai_cod":73201,"gid":5447,"faixa_fron":"Nro","undadm_cod":30202001969,"undadm_nom":"COORDENACAO REGIONAL NORDESTE I","undadm_sig":"CR-NE-I"},"geometry":{"type":"Point","coordinates":[-37.967639,-9.205034]}},{"type":"Feature","properties":{"terrai_nom":"Kaxarari - AM RO","etnia_nome":"Kaxarari","municipio_":"Labrea,Porto Velho","uf_sigla":"AM,RO","superficie":0,"fase_ti":"Em Estudo","modalidade":"Tradicionalmente ocupada","reestudo_t":"Reestudo","superfici0":null,"terrai_cod":73712,"gid":5399,"faixa_fron":"Sim","undadm_cod":30202001845,"undadm_nom":"COORDENACAO REGIONAL ALTO PURUS","undadm_sig":"CR-ALPR"},"geometry":{"type":"Point","coordinates":[-66.217236,-9.114836]}},{"type":"Feature","properties":{"terrai_nom":"Inhacor","etnia_nome":"Kaingang","municipio_":"Sao Valgrio do Sul","uf_sigla":"RS","superficie":0,"fase_ti":"Em Estudo","modalidade":"Tradicionalmente ocupada","reestudo_t":"Reestudo","superfici0":null,"terrai_cod":17102,"gid":5492,"faixa_fron":"Sim","undadm_cod":30202002081,"undadm_nom":"COORDENACAO REGIONAL DE PASSO FUNDO","undadm_sig":"CR-PFD"},"geometry":{"type":"Point","coordinates":[-53.940421,-27.862928]}},{"type":"Feature","properties":{"terrai_nom":"Kaingang de IraI","etnia_nome":"Kaingang","municipio_":"Iran","uf_sigla":"RS","superficie":0,"fase_ti":"Em Estudo","modalidade":"Tradicionalmente ocupada","reestudo_t":"Reestudo","superfici0":null,"terrai_cod":20102,"gid":5464,"faixa_fron":"Sim","undadm_cod":30202002081,"undadm_nom":"COORDENACAO REGIONAL DE PASSO FUNDO","undadm_sig":"CR-PFD"},"geometry":{"type":"Point","coordinates":[-53.198648,-27.23086]}},{"type":"Feature","properties":{"terrai_nom":"Areal","etnia_nome":"Tembl","municipio_":"Santa Maria do ParA","uf_sigla":"PA","superficie":0,"fase_ti":"Em Estudo","modalidade":"Tradicionalmente ocupada","reestudo_t":null,"superfici0":null,"terrai_cod":73716,"gid":5463,"faixa_fron":"N","undadm_cod":30202001906,"undadm_nom":"COORDENACAO REGIONAL DO BAIXO TOCANTINS","undadm_sig":"CR- BTC"},"geometry":{"type":"Point","coordinates":[-47.6178,-1.386329]}},{"type":"Feature","properties":{"terrai_nom":"ItapuT","etnia_nome":"Guaran","municipio_":"Viamao","uf_sigla":"RS","superficie":0,"fase_ti":"Em Estudo","modalidade":"Tradicionalmente ocupada","reestudo_t":null,"superfici0":null,"terrai_cod":69501,"gid":5459,"faixa_fron":"N","undadm_cod":30202002095,"undadm_nom":"COORDENACAO REGIONAL LITORAL SUL","undadm_sig":"CR-LISUL"},"geometry":{"type":"Point","coordinates":[-50.983797,-30.279003]}},{"type":"Feature","properties":{"terrai_nom":"Jeripanc","etnia_nome":"Jeripanc","municipio_":"Jgua Branca,Pariconha","uf_sigla":"AL","superficie":0,"fase_ti":"Em Estudo","modalidade":"Tradicionalmente ocupada","reestudo_t":"Reestudo","superfici0":null,"terrai_cod":19401,"gid":5489,"faixa_fron":"Neo","undadm_cod":30202001969,"undadm_nom":"COORDENACAO REGIONAL NORDESTE I","undadm_sig":"CR-NE-I"},"geometry":{"type":"Point","coordinates":[-38.070467,-9.224172]}},{"type":"Feature","properties":{"terrai_nom":"Pilad RebuO","etnia_nome":"Terena","municipio_":"Miranda","uf_sigla":"MS","superficie":0,"fase_ti":"Em Estudo","modalidade":"Tradicionalmente ocupada","reestudo_t":"Reestudo","superfici0":null,"terrai_cod":35202,"gid":5419,"faixa_fron":"Neo","undadm_cod":30202002004,"undadm_nom":"COORDENACAO REGIONAL DE CAMPO GRANDE","undadm_sig":"CR-CGR"},"geometry":{"type":"Point","coordinates":[-56.370383,-20.291335]}},{"type":"Feature","properties":{"terrai_nom":"Pirititi","etnia_nome":"Isolados","municipio_":"Rorainopolis","uf_sigla":"RR","superficie":40095,"fase_ti":"Em Estudo","modalidade":"Interditada","reestudo_t":null,"superfici0":null,"terrai_cod":73708,"gid":5465,"faixa_fron":"N","undadm_cod":30202001955,"undadm_nom":"COORDENACAO REGIONAL DE RORAIMA","undadm_sig":"CR-RR"},"geometry":{"type":"Point","coordinates":[-60.386944,0.341667]}},{"type":"Feature","properties":{"terrai_nom":"Ponta da Formiga","etnia_nome":"Guarand","municipio_":"Barra do Ribeiro","uf_sigla":"RS","superficie":0,"fase_ti":"Em Estudo","modalidade":"Tradicionalmente ocupada","reestudo_t":null,"superfici0":null,"terrai_cod":69601,"gid":5381,"faixa_fron":"Nro","undadm_cod":30202002095,"undadm_nom":"COORDENACAO REGIONAL LITORAL SUL","undadm_sig":"CR-LISUL"},"geometry":{"type":"Point","coordinates":[-51.195073,-30.392968]}},{"type":"Feature","properties":{"terrai_nom":"Rio Arraias","etnia_nome":"Kaiabi","municipio_":"Marcel","uf_sigla":"MT","superficie":0,"fase_ti":"Em Estudo","modalidade":"Tradicionalmente ocupada","reestudo_t":null,"superfici0":null,"terrai_cod":38401,"gid":5474,"faixa_fron":"Nro","undadm_cod":30202002060,"undadm_nom":"COORDENACAO REGIONAL DO XINGU","undadm_sig":"CR-XIG"},"geometry":{"type":"Point","coordinates":[-54.181334,-11.181873]}},{"type":"Feature","properties":{"terrai_nom":"Sangradouro/Volta Grande","etnia_nome":"Xavante,Bor/ro","municipio_":"Poxorto,Novo S","uf_sigla":"MT","superficie":0,"fase_ti":"Em Estudo","modalidade":"Tradicionalmente ocupada","reestudo_t":"Reestudo","superfici0":null,"terrai_cod":41102,"gid":5454,"faixa_fron":"Neo","undadm_cod":30202002053,"undadm_nom":"COORDENACAO REGIONAL XAVANTE","undadm_sig":"CR-XAV"},"geometry":{"type":"Point","coordinates":[-53.948054,-15.68054]}},{"type":"Feature","properties":{"terrai_nom":"Rio CautCrio","etnia_nome":"Djeoromitxi - JabutL,Kujubim,KanoC","municipio_":"Costa Marques,Guajar,-Mirim","uf_sigla":"RO","superficie":0,"fase_ti":"Em Estudo","modalidade":"Tradicionalmente ocupada","reestudo_t":null,"superfici0":null,"terrai_cod":73715,"gid":5388,"faixa_fron":"Sim","undadm_cod":30202001941,"undadm_nom":"COORDENACAO REGIONAL DE GUAJARA MIRIM","undadm_sig":"CR-GJM"},"geometry":{"type":"Point","coordinates":[-64.468593,-12.138868]}},{"type":"Feature","properties":{"terrai_nom":"Rio Capivari - PorAi","etnia_nome":"Guaranp","municipio_":"Capivari do Sul","uf_sigla":"RS","superficie":0,"fase_ti":"Em Estudo","modalidade":"Tradicionalmente ocupada","reestudo_t":null,"superfici0":null,"terrai_cod":73706,"gid":5386,"faixa_fron":"Nro","undadm_cod":30202002095,"undadm_nom":"COORDENACAO REGIONAL LITORAL SUL","undadm_sig":"CR-LISUL"},"geometry":{"type":"Point","coordinates":[-50.566612,-30.147136]}},{"type":"Feature","properties":{"terrai_nom":"TapirapL/KarajG","etnia_nome":"TapirapL,KarajG","municipio_":"Luciara,Santa Terezinha","uf_sigla":"MT","superficie":0,"fase_ti":"Em Estudo","modalidade":"Tradicionalmente ocupada","reestudo_t":"Reestudo","superfici0":null,"terrai_cod":44002,"gid":5431,"faixa_fron":"Neo","undadm_cod":30202001962,"undadm_nom":"COORDENACAO REGIONAL ARAGUAIA TOCANTINS","undadm_sig":"CR- ARGTO"},"geometry":{"type":"Point","coordinates":[-50.818127,-10.923031]}},{"type":"Feature","properties":{"terrai_nom":"Segu","etnia_nome":"Kaingang","municipio_":"Novo Xingu","uf_sigla":"RS","superficie":0,"fase_ti":"Em Estudo","modalidade":"Tradicionalmente ocupada","reestudo_t":null,"superfici0":null,"terrai_cod":68501,"gid":5452,"faixa_fron":"Sim","undadm_cod":30202002081,"undadm_nom":"COORDENACAO REGIONAL DE PASSO FUNDO","undadm_sig":"CR-PFD"},"geometry":{"type":"Point","coordinates":[-53.010968,-27.760942]}},{"type":"Feature","properties":{"terrai_nom":"SRo Gabriel/SEo Salvador","etnia_nome":"Kokama","municipio_":"Santo Antenio do Ilv","uf_sigla":"AM","superficie":0,"fase_ti":"Em Estudo","modalidade":"Tradicionalmente ocupada","reestudo_t":null,"superfici0":null,"terrai_cod":57201,"gid":5449,"faixa_fron":"Nro","undadm_cod":30202001857,"undadm_nom":"COORDENACAO REGIONAL DO ALTO SOLIMOES","undadm_sig":"CR-ASL"},"geometry":{"type":"Point","coordinates":[-67.944058,-3.154389]}},{"type":"Feature","properties":{"terrai_nom":"SawrS Jaybu","etnia_nome":"Munduruky","municipio_":"Itaituba,TrairGo","uf_sigla":"PA","superficie":0,"fase_ti":"Em Estudo","modalidade":"Tradicionalmente ocupada","reestudo_t":null,"superfici0":null,"terrai_cod":57801,"gid":5411,"faixa_fron":"N","undadm_cod":30202001927,"undadm_nom":"COORDENACAO REGIONAL DE TAPAJOS","undadm_sig":"CR-TPJ"},"geometry":{"type":"Point","coordinates":[-56.220868,-4.450594]}},{"type":"Feature","properties":{"terrai_nom":"Ua-a","etnia_nome":"Karipuna","municipio_":"Oiapoque","uf_sigla":"AP","superficie":0,"fase_ti":"Em Estudo","modalidade":"Tradicionalmente ocupada","reestudo_t":"Reestudo","superfici0":null,"terrai_cod":47602,"gid":5433,"faixa_fron":"Sim","undadm_cod":30202001899,"undadm_nom":"COORDENACAO REGIONAL AMAPA E NORTE DO PAR","undadm_sig":"CR-APNP"},"geometry":{"type":"Point","coordinates":[-51.8864,2.717123]}},{"type":"Feature","properties":{"terrai_nom":"Tereza Cristina","etnia_nome":"Borero","municipio_":"Santo Antinio do Leverger","uf_sigla":"MT","superficie":0,"fase_ti":"Em Estudo","modalidade":"Tradicionalmente ocupada","reestudo_t":"Reestudo","superfici0":null,"terrai_cod":45002,"gid":5413,"faixa_fron":"N","undadm_cod":30202002025,"undadm_nom":"COORDENACAO REGIONAL DE CUIABA","undadm_sig":"CR-CBA"},"geometry":{"type":"Point","coordinates":[-55.245499,-16.507251]}},{"type":"Feature","properties":{"terrai_nom":"KarajA Santana do Araguaia","etnia_nome":"KarajA","municipio_":"Santa Maria das Barreiras","uf_sigla":"PA","superficie":0,"fase_ti":"Em Estudo","modalidade":"Tradicionalmente ocupada","reestudo_t":"Reestudo","superfici0":null,"terrai_cod":21302,"gid":5424,"faixa_fron":"Neo","undadm_cod":30202001962,"undadm_nom":"COORDENACAO REGIONAL ARAGUAIA TOCANTINS","undadm_sig":"CR- ARGTO"},"geometry":{"type":"Point","coordinates":[-49.848327,-8.936008]}},{"type":"Feature","properties":{"terrai_nom":"Vila Real","etnia_nome":"Tenetehara","municipio_":"Barra do Corda","uf_sigla":"MA","superficie":0,"fase_ti":"Em Estudo","modalidade":"Tradicionalmente ocupada","reestudo_t":null,"superfici0":null,"terrai_cod":56901,"gid":5432,"faixa_fron":"Nro","undadm_cod":30202001997,"undadm_nom":"COORDENACAO REGIONAL MARANHIO","undadm_sig":"CR-MA"},"geometry":{"type":"Point","coordinates":[-45.274458,-5.788786]}},{"type":"Feature","properties":{"terrai_nom":"Wawi","etnia_nome":"KisidjN","municipio_":"Querdncia","uf_sigla":"MT","superficie":0,"fase_ti":"Em Estudo","modalidade":"Tradicionalmente ocupada","reestudo_t":"Reestudo","superfici0":null,"terrai_cod":49802,"gid":5443,"faixa_fron":"N","undadm_cod":30202002060,"undadm_nom":"COORDENACAO REGIONAL DO XINGU","undadm_sig":"CR-XIG"},"geometry":{"type":"Point","coordinates":[-52.821584,-11.797914]}},{"type":"Feature","properties":{"terrai_nom":"Borari de Alter do ChDo","etnia_nome":"Borari","municipio_":"Santar","uf_sigla":"PA","superficie":0,"fase_ti":"Em Estudo","modalidade":"Tradicionalmente ocupada","reestudo_t":null,"superfici0":null,"terrai_cod":51901,"gid":5420,"faixa_fron":"Nro","undadm_cod":30202001927,"undadm_nom":"COORDENACAO REGIONAL DE TAPAJOS","undadm_sig":"CR-TPJ"},"geometry":{"type":"Point","coordinates":[-55.001069,-2.525678]}},{"type":"Feature","properties":{"terrai_nom":"Nonoai/Rio da Varzea-RS","etnia_nome":"Kaingang","municipio_":"Trindade do Sul,Planalto,Nonoai,Liberato Salzano,Gramado dos Loureiros","uf_sigla":"RS","superficie":0,"fase_ti":"Em Estudo","modalidade":"Tradicionalmente ocupada","reestudo_t":"Reestudo","superfici0":null,"terrai_cod":73721,"gid":5467,"faixa_fron":"Sim","undadm_cod":30202002081,"undadm_nom":"COORDENACAO REGIONAL DE PASSO FUNDO","undadm_sig":"CR-PFD"},"geometry":{"type":"Point","coordinates":[-53.155276,-27.481731]}},{"type":"Feature","properties":{"terrai_nom":"JavaF/Ava Canoeiro (CanoanS)","etnia_nome":"JavaF","municipio_":"Formoso do Araguaia,SandolSndia","uf_sigla":"TO","superficie":0,"fase_ti":"Em Estudo","modalidade":"Tradicionalmente ocupada","reestudo_t":null,"superfici0":null,"terrai_cod":70301,"gid":5389,"faixa_fron":"Nro","undadm_cod":30202001962,"undadm_nom":"COORDENACAO REGIONAL ARAGUAIA TOCANTINS","undadm_sig":"CR- ARGTO"},"geometry":{"type":"Point","coordinates":[-49.949108,-12.149681]}},{"type":"Feature","properties":{"terrai_nom":"Coroa Vermelha (Ponta Grande)","etnia_nome":"Patax","municipio_":"Santa Cruz Cabr(lia,Porto Seguro","uf_sigla":"BA","superficie":0,"fase_ti":"Em Estudo","modalidade":"Tradicionalmente ocupada","reestudo_t":"Reestudo","superfici0":null,"terrai_cod":10302,"gid":5418,"faixa_fron":"N","undadm_cod":30202001990,"undadm_nom":"COORDENACAO REGIONAL DO SUL DA BAHIA","undadm_sig":"CR-SBA"},"geometry":{"type":"Point","coordinates":[-39.044661,-16.310393]}},{"type":"Feature","properties":{"terrai_nom":"Sagi/Trabanda","etnia_nome":"Potiguara","municipio_":"Bata Formosa","uf_sigla":"RN","superficie":0,"fase_ti":"Em Estudo","modalidade":"Tradicionalmente ocupada","reestudo_t":null,"superfici0":null,"terrai_cod":73726,"gid":5402,"faixa_fron":"N","undadm_cod":30202001976,"undadm_nom":"COORDENACAO REGIONAL NORDESTE II","undadm_sig":"CR-NE-II"},"geometry":{"type":"Point","coordinates":[-35.028,-6.452198]}},{"type":"Feature","properties":{"terrai_nom":"IgarapI Taboca do Alto TarauacI","etnia_nome":"Isolados","municipio_":"Jordao","uf_sigla":"AC","superficie":287,"fase_ti":"Em Estudo","modalidade":"Interditada","reestudo_t":null,"superfici0":null,"terrai_cod":67601,"gid":5476,"faixa_fron":"Sim","undadm_cod":30202001852,"undadm_nom":"COORDENACAO REGIONAL DO JURUa","undadm_sig":"CR-JRU"},"geometry":{"type":"Point","coordinates":[-71.899062,-9.422478]}},{"type":"Feature","properties":{"terrai_nom":"Auati-Paran  (Santa Uni o)","etnia_nome":"Mirtnha,Kokama,Tikana","municipio_":"Fonte Boa","uf_sigla":"AM","superficie":0,"fase_ti":"Em Estudo","modalidade":"Tradicionalmente ocupada","reestudo_t":null,"superfici0":null,"terrai_cod":73725,"gid":5486,"faixa_fron":"N","undadm_cod":30202001857,"undadm_nom":"COORDENACAO REGIONAL DO ALTO SOLIMOES","undadm_sig":"CR-ASL"},"geometry":{"type":"Point","coordinates":[-66.647986,-2.322228]}},{"type":"Feature","properties":{"terrai_nom":"Cinta Vermelha Jundiba","etnia_nome":"Patax ,PankararJ","municipio_":"Araaua,","uf_sigla":"MG","superficie":0,"fase_ti":"Em Estudo","modalidade":"Reserva Indagena","reestudo_t":null,"superfici0":null,"terrai_cod":73707,"gid":5478,"faixa_fron":"N","undadm_cod":30202002067,"undadm_nom":"COORDENACAO REGIONAL DE MINAS GERAIS E ESPIRITO SANTOS","undadm_sig":"CR-MGES"},"geometry":{"type":"Point","coordinates":[-42.037759,-16.743562]}},{"type":"Feature","properties":{"terrai_nom":"Roro-Walu (JatobO/Ikpeng)","etnia_nome":"Ikpeng","municipio_":"Paranatinga","uf_sigla":"MT","superficie":0,"fase_ti":"Em Estudo","modalidade":"Tradicionalmente ocupada","reestudo_t":null,"superfici0":null,"terrai_cod":65001,"gid":5378,"faixa_fron":"N","undadm_cod":30202002060,"undadm_nom":"COORDENACAO REGIONAL DO XINGU","undadm_sig":"CR-XIG"},"geometry":{"type":"Point","coordinates":[-54.191989,-12.726944]}},{"type":"Feature","properties":{"terrai_nom":"JaminawA da ColocaALo S o Paulino","etnia_nome":"Yaminawa","municipio_":"Boca do Acre","uf_sigla":"AM","superficie":0,"fase_ti":"Em Estudo","modalidade":"Tradicionalmente ocupada","reestudo_t":null,"superfici0":null,"terrai_cod":52001,"gid":5437,"faixa_fron":"N","undadm_cod":30202001845,"undadm_nom":"COORDENACAO REGIONAL ALTO PURUS","undadm_sig":"CR-ALPR"},"geometry":{"type":"Point","coordinates":[-68.691465,-8.99146]}},{"type":"Feature","properties":{"terrai_nom":"Kaxinaw","etnia_nome":"Kaxinaw","municipio_":"Feijn","uf_sigla":"AC","superficie":0,"fase_ti":"Em Estudo","modalidade":"Tradicionalmente ocupada","reestudo_t":null,"superfici0":null,"terrai_cod":57301,"gid":5480,"faixa_fron":"Sim","undadm_cod":30202001852,"undadm_nom":"COORDENACAO REGIONAL DO JURU","undadm_sig":"CR-JRU"},"geometry":{"type":"Point","coordinates":[-70.614141,-8.412818]}},{"type":"Feature","properties":{"terrai_nom":"Waimiri-Atroari","etnia_nome":"Waimiri Atroari","municipio_":"Presidente Figueiredo,Novo AirSo,RorainEpolis","uf_sigla":"AM,RR","superficie":0,"fase_ti":"Em Estudo","modalidade":"Tradicionalmente ocupada","reestudo_t":null,"superfici0":null,"terrai_cod":73724,"gid":5482,"faixa_fron":"N","undadm_cod":30202001871,"undadm_nom":"COORDENACAO REGIONAL DE MANAUS","undadm_sig":"CR-MAO"},"geometry":{"type":"Point","coordinates":[-60.007252,-0.7014]}},{"type":"Feature","properties":{"terrai_nom":"PacajO","etnia_nome":"Asurini do Tocantins","municipio_":"Portel","uf_sigla":"PA","superficie":0,"fase_ti":"Em Estudo","modalidade":"Tradicionalmente ocupada","reestudo_t":null,"superfici0":null,"terrai_cod":55401,"gid":5436,"faixa_fron":"Nro","undadm_cod":30202001906,"undadm_nom":"COORDENACAO REGIONAL DO BAIXO TOCANTINS","undadm_sig":"CR- BTC"},"geometry":{"type":"Point","coordinates":[-50.165222,-3.174859]}},{"type":"Feature","properties":{"terrai_nom":"Petim/Arasaty","etnia_nome":"GuaranA","municipio_":"Guarba","uf_sigla":"RS","superficie":0,"fase_ti":"Em Estudo","modalidade":"Tradicionalmente ocupada","reestudo_t":null,"superfici0":null,"terrai_cod":70701,"gid":5379,"faixa_fron":"Nro","undadm_cod":30202002095,"undadm_nom":"COORDENACAO REGIONAL LITORAL SUL","undadm_sig":"CR-LISUL"},"geometry":{"type":"Point","coordinates":[-51.365641,-30.185347]}},{"type":"Feature","properties":{"terrai_nom":"Krenak dos Sete SalLes","etnia_nome":"Krenak","municipio_":"Santa Rita do Itueto,Resplendor,Conselheiro Pena,Itueta","uf_sigla":"MG","superficie":0,"fase_ti":"Em Estudo","modalidade":"Tradicionalmente ocupada","reestudo_t":"Reestudo","superfici0":null,"terrai_cod":23402,"gid":5471,"faixa_fron":"N","undadm_cod":30202002067,"undadm_nom":"COORDENACAO REGIONAL DE MINAS GERAIS E ESPIRITO SANTOS","undadm_sig":"CR-MGES"},"geometry":{"type":"Point","coordinates":[-41.290097,-19.38316]}},{"type":"Feature","properties":{"terrai_nom":"Karitiana","etnia_nome":"Karitiana","municipio_":"Porto Velho","uf_sigla":"RO","superficie":0,"fase_ti":"Em Estudo","modalidade":"Tradicionalmente ocupada","reestudo_t":"Reestudo","superfici0":null,"terrai_cod":21802,"gid":5416,"faixa_fron":"Neo","undadm_cod":30202001948,"undadm_nom":"COORDENACAO REGIONAL DE JI PARANA","undadm_sig":"CR- JPR"},"geometry":{"type":"Point","coordinates":[-63.864973,-9.704017]}},{"type":"Feature","properties":{"terrai_nom":"Piripkura ( restriALo de uso )","etnia_nome":"Isolados","municipio_":"Colniza,Rondolsndia","uf_sigla":"MT","superficie":242500,"fase_ti":"Em Estudo","modalidade":"Interditada","reestudo_t":null,"superfici0":null,"terrai_cod":66901,"gid":5412,"faixa_fron":"N","undadm_cod":30202001948,"undadm_nom":"COORDENACAO REGIONAL DE JI PARANA","undadm_sig":"CR- JPR"},"geometry":{"type":"Point","coordinates":[-61.000933,-9.669376]}},{"type":"Feature","properties":{"terrai_nom":"Purubor","etnia_nome":"Purobor","municipio_":"Seringueiras,SGo Francisco do Guapor","uf_sigla":"RO","superficie":0,"fase_ti":"Em Estudo","modalidade":"Tradicionalmente ocupada","reestudo_t":null,"superfici0":null,"terrai_cod":65501,"gid":5450,"faixa_fron":"Sim","undadm_cod":30202001948,"undadm_nom":"COORDENACAO REGIONAL DE JI PARANA","undadm_sig":"CR- JPR"},"geometry":{"type":"Point","coordinates":[-63.314891,-11.981998]}},{"type":"Feature","properties":{"terrai_nom":"Tanaru ( restriIOo de uso )","etnia_nome":"Isolados","municipio_":"Chupinguaia,Parecis,Pimenteiras do Oeste,Corumbiara","uf_sigla":"RO","superficie":8070,"fase_ti":"Em Estudo","modalidade":"Interditada","reestudo_t":null,"superfici0":null,"terrai_cod":66301,"gid":5384,"faixa_fron":"Sim","undadm_cod":30202001948,"undadm_nom":"COORDENACAO REGIONAL DE JI PARANA","undadm_sig":"CR- JPR"},"geometry":{"type":"Point","coordinates":[-61.368317,-12.652894]}},{"type":"Feature","properties":{"terrai_nom":"IgarapR Paiol","etnia_nome":"ApurinR","municipio_":"Manaquiri","uf_sigla":"AM","superficie":0,"fase_ti":"Em Estudo","modalidade":"Tradicionalmente ocupada","reestudo_t":null,"superfici0":null,"terrai_cod":52901,"gid":5494,"faixa_fron":"Nro","undadm_cod":30202001871,"undadm_nom":"COORDENACAO REGIONAL DE MANAUS","undadm_sig":"CR-MAO"},"geometry":{"type":"Point","coordinates":[-60.69504,-3.832873]}},{"type":"Feature","properties":{"terrai_nom":"Massiambu","etnia_nome":"Guarani Mbya","municipio_":"Palhona","uf_sigla":"SC","superficie":0,"fase_ti":"Em Estudo","modalidade":"Tradicionalmente ocupada","reestudo_t":null,"superfici0":null,"terrai_cod":27801,"gid":5374,"faixa_fron":"Nro","undadm_cod":30202002095,"undadm_nom":"COORDENACAO REGIONAL LITORAL SUL","undadm_sig":"CR-LISUL"},"geometry":{"type":"Point","coordinates":[-48.656139,-27.823544]}},{"type":"Feature","properties":{"terrai_nom":"Mukurin","etnia_nome":"Mucurim","municipio_":"Campanmrio","uf_sigla":"MG","superficie":0,"fase_ti":"Em Estudo","modalidade":"Tradicionalmente ocupada","reestudo_t":null,"superfici0":null,"terrai_cod":73749,"gid":5487,"faixa_fron":"N","undadm_cod":0,"undadm_nom":null,"undadm_sig":null},"geometry":{"type":"Point","coordinates":[-41.748,-18.239]}},{"type":"Feature","properties":{"terrai_nom":"Planalto Santareno","etnia_nome":"Apiakl, Mundurukn","municipio_":"Santar,m","uf_sigla":"PA","superficie":0,"fase_ti":"Em Estudo","modalidade":"Tradicionalmente ocupada","reestudo_t":null,"superfici0":null,"terrai_cod":73754,"gid":5377,"faixa_fron":"N","undadm_cod":0,"undadm_nom":null,"undadm_sig":null},"geometry":{"type":"Point","coordinates":[-54.253744,-2.778442]}},{"type":"Feature","properties":{"terrai_nom":"Apucarana - Reestudo","etnia_nome":"Kaingang","municipio_":"Londrina","uf_sigla":"PR","superficie":0,"fase_ti":"Em Estudo","modalidade":"Tradicionalmente ocupada","reestudo_t":"Reestudo","superfici0":null,"terrai_cod":73740,"gid":5394,"faixa_fron":"N","undadm_cod":0,"undadm_nom":null,"undadm_sig":null},"geometry":{"type":"Point","coordinates":[-50.97585,-23.846297]}},{"type":"Feature","properties":{"terrai_nom":"Trukt-Reestudo-Reestudo","etnia_nome":"Trukt","municipio_":"CabrobR","uf_sigla":"PE","superficie":0,"fase_ti":"Em Estudo","modalidade":"Tradicionalmente ocupada","reestudo_t":"Reestudo","superfici0":null,"terrai_cod":73759,"gid":5382,"faixa_fron":"N","undadm_cod":0,"undadm_nom":null,"undadm_sig":null},"geometry":{"type":"Point","coordinates":[-39.436839,-8.501019]}},{"type":"Feature","properties":{"terrai_nom":"Douradopegum","etnia_nome":"Guarano","municipio_":"Fonte Boa","uf_sigla":"AM","superficie":0,"fase_ti":"Em Estudo","modalidade":"Tradicionalmente ocupada","reestudo_t":"principal","superfici0":null,"terrai_cod":73743,"gid":5458,"faixa_fron":"Sim","undadm_cod":0,"undadm_nom":null,"undadm_sig":null},"geometry":{"type":"Point","coordinates":[-54.863417,-22.258417]}},{"type":"Feature","properties":{"terrai_nom":"Fulkaxp","etnia_nome":"Fulni-p, Kariri - Xoca","municipio_":"Pacatuba","uf_sigla":"SE","superficie":0,"fase_ti":"Em Estudo","modalidade":"Reserva Indrgena","reestudo_t":null,"superfici0":null,"terrai_cod":73750,"gid":5468,"faixa_fron":"N","undadm_cod":0,"undadm_nom":null,"undadm_sig":null},"geometry":{"type":"Point","coordinates":[-37.083,-9.968]}},{"type":"Feature","properties":{"terrai_nom":"Apykai","etnia_nome":"Guaran","municipio_":"Dourados","uf_sigla":"MS","superficie":0,"fase_ti":"Em Estudo","modalidade":"Tradicionalmente ocupada","reestudo_t":"principal","superfici0":null,"terrai_cod":73744,"gid":5461,"faixa_fron":"Sim","undadm_cod":0,"undadm_nom":null,"undadm_sig":null},"geometry":{"type":"Point","coordinates":[-54.863417,-22.258417]}},{"type":"Feature","properties":{"terrai_nom":"Guarani de Santa Helena","etnia_nome":"Ava-Guarani","municipio_":"Santa Helena","uf_sigla":"PR","superficie":0,"fase_ti":"Em Estudo","modalidade":"Tradicionalmente ocupada","reestudo_t":"Principal","superfici0":null,"terrai_cod":73753,"gid":5375,"faixa_fron":"Sim","undadm_cod":0,"undadm_nom":null,"undadm_sig":null},"geometry":{"type":"Point","coordinates":[-54.333,-24.86]}},{"type":"Feature","properties":{"terrai_nom":"Krahc-Kanela-Reestudo","etnia_nome":"Krahc, Kraha-Kanela","municipio_":"Lagoa da Confusno","uf_sigla":"TO","superficie":0,"fase_ti":"Em Estudo","modalidade":"Dominial Indfgena","reestudo_t":null,"superfici0":null,"terrai_cod":73757,"gid":5396,"faixa_fron":"N","undadm_cod":0,"undadm_nom":null,"undadm_sig":null},"geometry":{"type":"Point","coordinates":[-49.953583,-11.009711]}},{"type":"Feature","properties":{"terrai_nom":"Santuirio Sagrado Dos PajRs","etnia_nome":null,"municipio_":"Brasulia","uf_sigla":"DF","superficie":0,"fase_ti":"Em Estudo","modalidade":"Tradicionalmente ocupada","reestudo_t":null,"superfici0":null,"terrai_cod":73758,"gid":5380,"faixa_fron":"N","undadm_cod":0,"undadm_nom":null,"undadm_sig":null},"geometry":{"type":"Point","coordinates":[-47.912778,-15.744722]}},{"type":"Feature","properties":{"terrai_nom":"Surubabel","etnia_nome":"Tuxu","municipio_":"Rodelas","uf_sigla":"BA","superficie":0,"fase_ti":"Em Estudo","modalidade":"Tradicionalmente ocupada","reestudo_t":null,"superfici0":null,"terrai_cod":73751,"gid":5472,"faixa_fron":"N","undadm_cod":0,"undadm_nom":null,"undadm_sig":null},"geometry":{"type":"Point","coordinates":[-38.756,-8.851]}},{"type":"Feature","properties":{"terrai_nom":"Guarani de Ocoy","etnia_nome":"Guarani Kaiowo","municipio_":"Suo Miguel do Iguacu","uf_sigla":"PR","superficie":0,"fase_ti":"Em Estudo","modalidade":"Tradicionalmente ocupada","reestudo_t":"Reestudo","superfici0":null,"terrai_cod":73752,"gid":5376,"faixa_fron":"Sim","undadm_cod":0,"undadm_nom":null,"undadm_sig":null},"geometry":{"type":"Point","coordinates":[-54.238,-25.348]}},{"type":"Feature","properties":{"terrai_nom":"Guarani de Paranapuu (Xixova Japui)","etnia_nome":"Guarani Mbya, Guarani Nhandeva","municipio_":"Suo Vicente","uf_sigla":"SP","superficie":0,"fase_ti":"Em Estudo","modalidade":"Tradicionalmente ocupada","reestudo_t":null,"superfici0":null,"terrai_cod":73747,"gid":5426,"faixa_fron":"N","undadm_cod":0,"undadm_nom":null,"undadm_sig":null},"geometry":{"type":"Point","coordinates":[-46.382111,-23.983722]}},{"type":"Feature","properties":{"terrai_nom":"Serrote dos Campos","etnia_nome":"Pankare","municipio_":"Itacuruba","uf_sigla":"PE","superficie":0,"fase_ti":"Em Estudo","modalidade":"Tradicionalmente ocupada","reestudo_t":null,"superfici0":null,"terrai_cod":73760,"gid":5397,"faixa_fron":"N","undadm_cod":0,"undadm_nom":null,"undadm_sig":null},"geometry":{"type":"Point","coordinates":[-38.704,-8.834]}},{"type":"Feature","properties":{"terrai_nom":"Aldeia Renascer (Ywyty Guasu)","etnia_nome":"Guaran , Guarani Mbya","municipio_":"Ubatuba","uf_sigla":"SP","superficie":0,"fase_ti":"Em Estudo","modalidade":"Tradicionalmente ocupada","reestudo_t":null,"superfici0":null,"terrai_cod":73746,"gid":5425,"faixa_fron":"N","undadm_cod":0,"undadm_nom":null,"undadm_sig":null},"geometry":{"type":"Point","coordinates":[-45.080556,-23.424167]}}]}